IRIDIUM 150             
1 43257U 18030J   23300.15651514  .00000362  00000+0  12223-3 0  9992
2 43257  86.3970 333.3830 0002069 100.0070 260.1359 14.34216395291987
IRIDIUM 143             
1 43258U 18030K   23300.13749543 -.00000175  00000+0 -69649-4 0  9990
2 43258  86.3970 333.4447 0002188  98.0980 262.0464 14.34214859291915
IRIDIUM 161             
1 43478U 18047C   23300.47022746  .00000194  00000+0  51787-4 0  9991
2 43478  86.4463 131.2793 0002055  86.4676 273.6760 14.43272530286136
IRIDIUM 152             
1 43479U 18047D   23300.52884840  .00000188  00000+0  60177-4 0  9995
2 43479  86.3932 131.1134 0002439  84.5313 275.6161 14.34220760284366
IRIDIUM 147             
1 43480U 18047E   23300.53516149  .00000143  00000+0  44011-4 0  9992
2 43480  86.3939 131.1008 0001993  82.9037 277.2385 14.34217816284368
IRIDIUM 110             
1 43481U 18047F   23300.54150045  .00000131  00000+0  39873-4 0  9990
2 43481  86.3945 131.1647 0001867  83.6418 276.4991 14.34216474284358
IRIDIUM 162             
1 43482U 18047G   23300.53333234  .00000180  00000+0  47605-4 0  9999
2 43482  86.4463 131.1567 0002078  87.6586 272.4853 14.43278346286138
IRIDIUM 160             
1 43569U 18061A   23300.48734614  .00000138  00000+0  42302-4 0  9994
2 43569  86.3922  99.5456 0002342  86.8711 273.2753 14.34217348275245
